[
    {
        "model": "contract.gouvernorat",
        "pk": 1,
        "fields": {
            "name": "Ariana"
        }
    },
    {
        "model": "contract.gouvernorat",
        "pk": 2,
        "fields": {
            "name": "Beja"
        }
    },
    {
        "model": "contract.gouvernorat",
        "pk": 3,
        "fields": {
            "name": "Ben Arous"
        }
    },
    {
        "model": "contract.gouvernorat",
        "pk": 4,
        "fields": {
            "name": "Bizerte"
        }
    },
    {
        "model": "contract.gouvernorat",
        "pk": 5,
        "fields": {
            "name": "Gabes"
        }
    },
    {
        "model": "contract.gouvernorat",
        "pk": 6,
        "fields": {
            "name": "Gafsa"
        }
    },
    {
        "model": "contract.gouvernorat",
        "pk": 7,
        "fields": {
            "name": "Jendouba"
        }
    },
    {
        "model": "contract.gouvernorat",
        "pk": 8,
        "fields": {
            "name": "Kairouan"
        }
    },
    {
        "model": "contract.gouvernorat",
        "pk": 9,
        "fields": {
            "name": "Kasserine"
        }
    },
    {
        "model": "contract.gouvernorat",
        "pk": 10,
        "fields": {
            "name": "Kebili"
        }
    },
    {
        "model": "contract.gouvernorat",
        "pk": 11,
        "fields": {
            "name": "Kef"
        }
    },
    {
        "model": "contract.gouvernorat",
        "pk": 12,
        "fields": {
            "name": "Mahdia"
        }
    },
    {
        "model": "contract.gouvernorat",
        "pk": 13,
        "fields": {
            "name": "Manouba"
        }
    },
    {
        "model": "contract.gouvernorat",
        "pk": 14,
        "fields": {
            "name": "Medenine"
        }
    },
    {
        "model": "contract.gouvernorat",
        "pk": 15,
        "fields": {
            "name": "Monastir"
        }
    },
    {
        "model": "contract.gouvernorat",
        "pk": 16,
        "fields": {
            "name": "Nabeul"
        }
    },
    {
        "model": "contract.gouvernorat",
        "pk": 17,
        "fields": {
            "name": "Sfax"
        }
    },
    {
        "model": "contract.gouvernorat",
        "pk": 18,
        "fields": {
            "name": "Sidi Bouzid"
        }
    },
    {
        "model": "contract.gouvernorat",
        "pk": 19,
        "fields": {
            "name": "Siliana"
        }
    },
    {
        "model": "contract.gouvernorat",
        "pk": 20,
        "fields": {
            "name": "Sousse"
        }
    },
    {
        "model": "contract.gouvernorat",
        "pk": 21,
        "fields": {
            "name": "Tataouine"
        }
    },
    {
        "model": "contract.gouvernorat",
        "pk": 22,
        "fields": {
            "name": "Tozeur"
        }
    },
    {
        "model": "contract.gouvernorat",
        "pk": 23,
        "fields": {
            "name": "Tunis"
        }
    },
    {
        "model": "contract.gouvernorat",
        "pk": 24,
        "fields": {
            "name": "Zaghouan"
        }
    },
    {
        "model": "contract.delegation",
        "pk": 1,
        "fields": {
            "gouvernorat": 1,
            "name": "Ariana Ville",
            "code_postal": "2021"
        }
    },
    {
        "model": "contract.delegation",
        "pk": 2,
        "fields": {
            "gouvernorat": 1,
            "name": "Soukra",
            "code_postal": "2036"
        }
    },
    
    {
        "model": "contract.delegation",
        "pk": 3,
        "fields": {
            "gouvernorat": 2,
            "name": "Beja Nord",
            "code_postal": "9000"
        }
    },
    {
        "model": "contract.delegation",
        "pk": 4,
        "fields": {
            "gouvernorat": 2,
            "name": "Beja Sud",
            "code_postal": "9001"
        }
    },
    {
        "model": "contract.delegation",
        "pk": 5,
        "fields": {
            "gouvernorat": 3,
            "name": "Ben Arous",
            "code_postal": "2013"
        }
    },
    {
        "model": "contract.delegation",
        "pk": 6,
        "fields": {
            "gouvernorat": 3,
            "name": "Rades",
            "code_postal": "2046"
        }
    },
    {
        "model": "contract.delegation",
        "pk": 7,
        "fields": {
            "gouvernorat": 3,
            "name": "Ezzahra",
            "code_postal": "2094"
        }
    },
    {
        "model": "contract.delegation",
        "pk": 8,
        "fields": {
            "gouvernorat": 3,
            "name": "Hammam Lif",
            "code_postal": "2015"
        }
    },
    {
        "model": "contract.delegation",
        "pk": 9,
        "fields": {
            "gouvernorat": 3,
            "name": "Mornag",
            "code_postal": "2080"
        }
    },
    {
        "model": "contract.delegation",
        "pk": 10,
        "fields": {
            "gouvernorat": 4,
            "name": "Bizerte Nord",
            "code_postal": "7000"
        }
    },
    {
        "model": "contract.delegation",
        "pk": 11,
        "fields": {
            "gouvernorat": 4,
            "name": "Bizerte Sud",
            "code_postal": "7001"
        }
    },
    {
        "model": "contract.delegation",
        "pk": 12,
        "fields": {
            "gouvernorat": 4,
            "name": "Menzel Bourguiba",
            "code_postal": "7021"
        }
    },
    {
        "model": "contract.delegation",
        "pk": 13,
        "fields": {
            "gouvernorat": 4,
            "name": "Mateur",
            "code_postal": "7010"
        }
    },
    {
        "model": "contract.delegation",
        "pk": 14,
        "fields": {
            "gouvernorat": 4,
            "name": "Ghar El Melh",
            "code_postal": "7080"
        }
    },
    {
        "model": "contract.delegation",
        "pk": 15,
        "fields": {
            "gouvernorat": 5,
            "name": "Gabes medina",
            "code_postal": "6000"
        }
    },
    {
        "model": "contract.delegation",
        "pk": 16,
        "fields": {
            "gouvernorat": 5,
            "name": "Mareth",
            "code_postal": "6011"
        }
    },
    {
        "model": "contract.delegation",
        "pk": 17,
        "fields": {
            "gouvernorat": 5,
            "name": "Matmata",
            "code_postal": "6014"
        }
    },
    {
        "model": "contract.delegation",
        "pk": 18,
        "fields": {
            "gouvernorat": 5,
            "name": "Ghannouch",
            "code_postal": "6020"
        }
    },
    {
        "model": "contract.delegation",
        "pk": 19,
        "fields": {
            "gouvernorat": 5,
            "name": "Menzel El Habib",
            "code_postal": "6050"
        }
    },
    {
        "model": "contract.delegation",
        "pk": 20,
        "fields": {
            "gouvernorat": 6,
            "name": "Gafsa Nord",
            "code_postal": "2196"
        }
    },
    {
        "model": "contract.delegation",
        "pk": 21,
        "fields": {
            "gouvernorat": 6,
            "name": "Moularès",
            "code_postal": "2110"
        }
    },
    {
        "model": "contract.delegation",
        "pk": 22,
        "fields": {
            "gouvernorat": 6,
            "name": "Redeyef",
            "code_postal": "2120"
        }
    },
    {
        "model": "contract.delegation",
        "pk": 23,
        "fields": {
            "gouvernorat": 6,
            "name": "El Guettar",
            "code_postal": "2130"
        }
    },
    {
        "model": "contract.delegation",
        "pk": 24,
        "fields": {
            "gouvernorat": 6,
            "name": "Sidi Aich",
            "code_postal": "2134"
        }
    },
    {
        "model": "contract.delegation",
        "pk": 25,
        "fields": {
            "gouvernorat": 7,
            "name": "Jendouba",
            "code_postal": "8100"
        }
    },
    {
        "model": "contract.delegation",
        "pk": 26,
        "fields": {
            "gouvernorat": 7,
            "name": "Bou Salem",
            "code_postal": "8110"
        }
    },
    {
        "model": "contract.delegation",
        "pk": 27,
        "fields": {
            "gouvernorat": 7,
            "name": "Ain Draham",
            "code_postal": "8111"
        }
    },
    {
        "model": "contract.delegation",
        "pk": 28,
        "fields": {
            "gouvernorat": 7,
            "name": "Ghardimaou",
            "code_postal": "8120"
        }
    },
    {
        "model": "contract.delegation",
        "pk": 29,
        "fields": {
            "gouvernorat": 7,
            "name": "Fernana",
            "code_postal": "8123"
        }
    },
    {
        "model": "contract.delegation",
        "pk": 30,
        "fields": {
            "gouvernorat": 8,
            "name": "Kairouan nord",
            "code_postal": "3140"
        }
    },
    {
        "model": "contract.delegation",
        "pk": 31,
        "fields": {
            "gouvernorat": 8,
            "name": "Haffouz",
            "code_postal": "3110"
        }
    },
    {
        "model": "contract.delegation",
        "pk": 32,
        "fields": {
            "gouvernorat": 8,
            "name": "Chebika",
            "code_postal": "3120"
        }
    },
    {
        "model": "contract.delegation",
        "pk": 33,
        "fields": {
            "gouvernorat": 8,
            "name": "Sbikha",
            "code_postal": "3130"
        }
    },
    {
        "model": "contract.delegation",
        "pk": 34,
        "fields": {
            "gouvernorat": 8,
            "name": "Bou Hajla",
            "code_postal": "3140"
        }
    },
    {
        "model": "contract.delegation",
        "pk": 35,
        "fields": {
            "gouvernorat": 9,
            "name": "Kasserine",
            "code_postal": "1200"
        }
    },
    {
        "model": "contract.delegation",
        "pk": 36,
        "fields": {
            "gouvernorat": 9,
            "name": "Sbeitla",
            "code_postal": "1210"
        }
    },
    {
        "model": "contract.delegation",
        "pk": 37,
        "fields": {
            "gouvernorat": 9,
            "name": "Feriana",
            "code_postal": "1211"
        }
    },
    {
        "model": "contract.delegation",
        "pk": 38,
        "fields": {
            "gouvernorat": 9,
            "name": "Thala",
            "code_postal": "1220"
        }
    },
    {
        "model": "contract.delegation",
        "pk": 39,
        "fields": {
            "gouvernorat": 9,
            "name": "Hassi El Ferid",
            "code_postal": "1230"
        }
    },
    {
        "model": "contract.delegation",
        "pk": 40,
        "fields": {
            "gouvernorat": 10,
            "name": "Kebili",
            "code_postal": "4200"
        }
    },
    {
        "model": "contract.delegation",
        "pk": 41,
        "fields": {
            "gouvernorat": 10,
            "name": "Douz",
            "code_postal": "4210"
        }
    },
    {
        "model": "contract.delegation",
        "pk": 42,
        "fields": {
            "gouvernorat": 10,
            "name": "Souk Lahad",
            "code_postal": "4220"
        }
    },
    {
        "model": "contract.delegation",
        "pk": 43,
        "fields": {
            "gouvernorat": 10,
            "name": "Jemna",
            "code_postal": "4230"
        }
    },
    {
        "model": "contract.delegation",
        "pk": 44,
        "fields": {
            "gouvernorat": 10,
            "name": "El Golaa",
            "code_postal": "4240"
        }
    },
    {
        "model": "contract.delegation",
        "pk": 45,
        "fields": {
            "gouvernorat": 11,
            "name": "Le Kef",
            "code_postal": "7100"
        }
    },
    {
        "model": "contract.delegation",
        "pk": 46,
        "fields": {
            "gouvernorat": 11,
            "name": "Nebeur",
            "code_postal": "7110"
        }
    },
    {
        "model": "contract.delegation",
        "pk": 47,
        "fields": {
            "gouvernorat": 11,
            "name": "Dahmani",
            "code_postal": "7120"
        }
    },
    {
        "model": "contract.delegation",
        "pk": 48,
        "fields": {
            "gouvernorat": 11,
            "name": "Sers",
            "code_postal": "7130"
        }
    },
    {
        "model": "contract.delegation",
        "pk": 49,
        "fields": {
            "gouvernorat": 11,
            "name": "Tajerouine",
            "code_postal": "7140"
        }
    },
    {
        "model": "contract.delegation",
        "pk": 50,
        "fields": {
            "gouvernorat": 12,
            "name": "Mahdia",
            "code_postal": "5100"
        }
    },
    {
        "model": "contract.delegation",
        "pk": 51,
        "fields": {
            "gouvernorat": 12,
            "name": "Rejiche",
            "code_postal": "5110"
        }
    },
    {
        "model": "contract.delegation",
        "pk": 52,
        "fields": {
            "gouvernorat": 12,
            "name": "Ksour Essef",
            "code_postal": "5120"
        }
    },
    {
        "model": "contract.delegation",
        "pk": 53,
        "fields": {
            "gouvernorat": 12,
            "name": "Chebba",
            "code_postal": "5130"
        }
    },
    {
        "model": "contract.delegation",
        "pk": 54,
        "fields": {
            "gouvernorat": 12,
            "name": "Melloulech",
            "code_postal": "5140"
        }
    },
    {
        "model": "contract.delegation",
        "pk": 55,
        "fields": {
            "gouvernorat": 13,
            "name": "Manouba",
            "code_postal": "2010"
        }
    },
    {
        "model": "contract.delegation",
        "pk": 56,
        "fields": {
            "gouvernorat": 13,
            "name": "Douar Hicher",
            "code_postal": "2011"
        }
    },
    {
        "model": "contract.delegation",
        "pk": 57,
        "fields": {
            "gouvernorat": 13,
            "name": "Oued Ellil",
            "code_postal": "2020"
        }
    },
    {
        "model": "contract.delegation",
        "pk": 58,
        "fields": {
            "gouvernorat": 13,
            "name": "Tebourba",
            "code_postal": "2023"
        }
    },
    {
        "model": "contract.delegation",
        "pk": 59,
        "fields": {
            "gouvernorat": 13,
            "name": "Borj El Amri",
            "code_postal": "2024"
        }
    },
    {
        "model": "contract.delegation",
        "pk": 60,
        "fields": {
            "gouvernorat": 14,
            "name": "Medenine",
            "code_postal": "4100"
        }
    },
    {
        "model": "contract.delegation",
        "pk": 61,
        "fields": {
            "gouvernorat": 14,
            "name": "Beni Khedache",
            "code_postal": "4110"
        }
    },
    {
        "model": "contract.delegation",
        "pk": 62,
        "fields": {
            "gouvernorat": 14,
            "name": "Ben Gardane",
            "code_postal": "4120"
        }
    },
    {
        "model": "contract.delegation",
        "pk": 63,
        "fields": {
            "gouvernorat": 14,
            "name": "Zarzis",
            "code_postal": "4130"
        }
    },
    {
        "model": "contract.delegation",
        "pk": 64,
        "fields": {
            "gouvernorat": 14,
            "name": "Ajim",
            "code_postal": "4140"
        }
    },
    {
        "model": "contract.delegation",
        "pk": 65,
        "fields": {
            "gouvernorat": 15,
            "name": "Monastir",
            "code_postal": "5000"
        }
    },
    {
        "model": "contract.delegation",
        "pk": 66,
        "fields": {
            "gouvernorat": 15,
            "name": "Ksar Hellal",
            "code_postal": "5010"
        }
    },
    {
        "model": "contract.delegation",
        "pk": 67,
        "fields": {
            "gouvernorat": 15,
            "name": "Moknine",
            "code_postal": "5020"
        }
    },
    {
        "model": "contract.delegation",
        "pk": 68,
        "fields": {
            "gouvernorat": 15,
            "name": "Jemmal",
            "code_postal": "5030"
        }
    },
    {
        "model": "contract.delegation",
        "pk": 69,
        "fields": {
            "gouvernorat": 15,
            "name": "Sahline",
            "code_postal": "5040"
        }
    },
    {
        "model": "contract.delegation",
        "pk": 70,
        "fields": {
            "gouvernorat": 16,
            "name": "Nabeul",
            "code_postal": "8000"
        }
    },
    {
        "model": "contract.delegation",
        "pk": 71,
        "fields": {
            "gouvernorat": 16,
            "name": "Hammamet",
            "code_postal": "8010"
        }
    },
    {
        "model": "contract.delegation",
        "pk": 72,
        "fields": {
            "gouvernorat": 16,
            "name": "Grombalia",
            "code_postal": "8020"
        }
    },
    {
        "model": "contract.delegation",
        "pk": 73,
        "fields": {
            "gouvernorat": 16,
            "name": "Korba",
            "code_postal": "8030"
        }
    },
    {
        "model": "contract.delegation",
        "pk": 74,
        "fields": {
            "gouvernorat": 16,
            "name": "Kelibia",
            "code_postal": "8040"
        }
    },
    {
        "model": "contract.delegation",
        "pk": 75,
        "fields": {
            "gouvernorat": 17,
            "name": "Sfax",
            "code_postal": "3000"
        }
    },
    {
        "model": "contract.delegation",
        "pk": 76,
        "fields": {
            "gouvernorat": 17,
            "name": "Sakiet Eddaier",
            "code_postal": "3011"
        }
    },
    {
        "model": "contract.delegation",
        "pk": 77,
        "fields": {
            "gouvernorat": 17,
            "name": "Sakiet Ezzit",
            "code_postal": "3021"
        }
    },
    {
        "model": "contract.delegation",
        "pk": 78,
        "fields": {
            "gouvernorat": 17,
            "name": "Menzel Chaker",
            "code_postal": "3030"
        }
    },
    {
        "model": "contract.delegation",
        "pk": 79,
        "fields": {
            "gouvernorat": 17,
            "name": "Agareb",
            "code_postal": "3041"
        }
    },
    {
        "model": "contract.delegation",
        "pk": 80,
        "fields": {
            "gouvernorat": 18,
            "name": "Sidi Bouzid",
            "code_postal": "9100"
        }
    },
    {
        "model": "contract.delegation",
        "pk": 81,
        "fields": {
            "gouvernorat": 18,
            "name": "Jilma",
            "code_postal": "9110"
        }
    },
    {
        "model": "contract.delegation",
        "pk": 82,
        "fields": {
            "gouvernorat": 18,
            "name": "Cebbala",
            "code_postal": "9120"
        }
    },
    {
        "model": "contract.delegation",
        "pk": 83,
        "fields": {
            "gouvernorat": 18,
            "name": "Regueb",
            "code_postal": "9130"
        }
    },
    {
        "model": "contract.delegation",
        "pk": 84,
        "fields": {
            "gouvernorat": 18,
            "name": "Meknassy",
            "code_postal": "9140"
        }
    },
    {
        "model": "contract.delegation",
        "pk": 85,
        "fields": {
            "gouvernorat": 19,
            "name": "Siliana",
            "code_postal": "6100"
        }
    },
    {
        "model": "contract.delegation",
        "pk": 86,
        "fields": {
            "gouvernorat": 19,
            "name": "Gaafour",
            "code_postal": "6110"
        }
    },
    {
        "model": "contract.delegation",
        "pk": 87,
        "fields": {
            "gouvernorat": 19,
            "name": "Bou Arada",
            "code_postal": "6120"
        }
    },
    {
        "model": "contract.delegation",
        "pk": 88,
        "fields": {
            "gouvernorat": 19,
            "name": "Kesra",
            "code_postal": "6130"
        }
    },
    {
        "model": "contract.delegation",
        "pk": 89,
        "fields": {
            "gouvernorat": 19,
            "name": "Bargou",
            "code_postal": "6140"
        }
    },
    {
        "model": "contract.delegation",
        "pk": 90,
        "fields": {
            "gouvernorat": 20,
            "name": "Sousse",
            "code_postal": "4000"
        }
    },
    {
        "model": "contract.delegation",
        "pk": 91,
        "fields": {
            "gouvernorat": 20,
            "name": "Msaken",
            "code_postal": "4011"
        }
    },
    {
        "model": "contract.delegation",
        "pk": 92,
        "fields": {
            "gouvernorat": 20,
            "name": "Hammam Sousse",
            "code_postal": "4021"
        }
    },
    {
        "model": "contract.delegation",
        "pk": 93,
        "fields": {
            "gouvernorat": 20,
            "name": "Akouda",
            "code_postal": "4030"
        }
    },
    {
        "model": "contract.delegation",
        "pk": 94,
        "fields": {
            "gouvernorat": 20,
            "name": "Sidi Bou Ali",
            "code_postal": "4041"
        }
    },
    {
        "model": "contract.delegation",
        "pk": 95,
        "fields": {
            "gouvernorat": 21,
            "name": "Tataouine",
            "code_postal": "3200"
        }
    },
    {
        "model": "contract.delegation",
        "pk": 96,
        "fields": {
            "gouvernorat": 21,
            "name": "Ghomrassen",
            "code_postal": "3210"
        }
    },
    {
        "model": "contract.delegation",
        "pk": 97,
        "fields": {
            "gouvernorat": 21,
            "name": "Remada",
            "code_postal": "3220"
        }
    },
    {
        "model": "contract.delegation",
        "pk": 98,
        "fields": {
            "gouvernorat": 21,
            "name": "Dehiba",
            "code_postal": "3230"
        }
    },
    {
        "model": "contract.delegation",
        "pk": 99,
        "fields": {
            "gouvernorat": 21,
            "name": "Bir Lahmar",
            "code_postal": "3240"
        }
    },
    {
        "model": "contract.delegation",
        "pk": 100,
        "fields": {
            "gouvernorat": 22,
            "name": "Tozeur",
            "code_postal": "2200"
        }
    },
    {
        "model": "contract.delegation",
        "pk": 101,
        "fields": {
            "gouvernorat": 22,
            "name": "Nefta",
            "code_postal": "2210"
        }
    },
    {
        "model": "contract.delegation",
        "pk": 102,
        "fields": {
            "gouvernorat": 22,
            "name": "Degache",
            "code_postal": "2220"
        }
    },
    {
        "model": "contract.delegation",
        "pk": 103,
        "fields": {
            "gouvernorat": 22,
            "name": "Tamaghza",
            "code_postal": "2230"
        }
    },
    {
        "model": "contract.delegation",
        "pk": 104,
        "fields": {
            "gouvernorat": 22,
            "name": "Hazoua",
            "code_postal": "2240"
        }
    },
    {
        "model": "contract.delegation",
        "pk": 105,
        "fields": {
            "gouvernorat": 23,
            "name": "Tunis",
            "code_postal": "1000"
        }
    },
    {
        "model": "contract.delegation",
        "pk": 106,
        "fields": {
            "gouvernorat": 23,
            "name": "Bab El Bhar",
            "code_postal": "1001"
        }
    },
    {
        "model": "contract.delegation",
        "pk": 107,
        "fields": {
            "gouvernorat": 23,
            "name": "Le Bardo",
            "code_postal": "1002"
        }
    },
    {
        "model": "contract.delegation",
        "pk": 108,
        "fields" : {
            "gouvernorat" : 1,
            "name": "Raoued",
            "code_postal": "2081"

        }
    },
    {
        "model": "contract.delegation",
        "pk": 109,
        "fields" : {
            "gouvernorat" : 1,
            "name": "Kalaat el Andalous",
            "code_postal": "2022"

        }
    },
    {
        "model": "contract.delegation",
        "pk": 110,
        "fields" : {
            "gouvernorat" : 1,
            "name": "Mnihla",
            "code_postal": "2094"

        }
    },
    {
        "model": "contract.delegation",
        "pk": 111,
        "fields" : {
            "gouvernorat" : 1,
            "name": "Sidi thabet",
            "code_postal": "2020"

        }
    },
    {
        "model": "contract.delegation",
        "pk": 112,
        "fields" : {
            "gouvernorat" : 1,
            "name": "Ettadhamen",
            "code_postal": "2041"

        }
    },
    {
        "model": "contract.delegation",
        "pk": 113,
        "fields" : {
            "gouvernorat" : 23,
            "name": "La marsa",
            "code_postal": "2070"

        }
    },
    {
        "model": "contract.delegation",
        "pk": 114,
        "fields" : {
            "gouvernorat" : 23,
            "name": "Kram",
            "code_postal": "2015"

        }
    },
    {
        "model": "contract.delegation",
        "pk": 115,
        "fields" : {
            "gouvernorat" : 23,
            "name": "El Menzah",
            "code_postal": "1004"

        }
    },
    {
        "model": "contract.delegation",
        "pk": 116,
        "fields" : {
            "gouvernorat" : 23,
            "name": "Cite el khadra",
            "code_postal": "1003"

        }
    },
   
    {
        "model": "contract.delegation",
        "pk": 117,
        "fields" : {
            "gouvernorat" : 23,
            "name": "Carthage",
            "code_postal": "2016"

        }
    },
    {
        "model": "contract.delegation",
        "pk": 118,
        "fields" : {
            "gouvernorat" : 23,
            "name": "La goulette",
            "code_postal": "2060"

        }
    },
    {
        "model": "contract.delegation",
        "pk": 119,
        "fields" : {
            "gouvernorat" : 23,
            "name": "Lac de tunis",
            "code_postal": "1053"

        }
    },
    {
        "model": "contract.delegation",
        "pk": 120,
        "fields" : {
            "gouvernorat" : 23,
            "name": "El omrane",
            "code_postal": "1029"

        }
    },
    {
        "model": "contract.delegation",
        "pk": 121,
        "fields" : {
            "gouvernorat" : 23,
            "name": "Omrane superieur",
            "code_postal": "1091"

        }
    },
    {
        "model": "contract.delegation",
        "pk": 122,
        "fields" : {
            "gouvernorat" : 23,
            "name": "Ettahrir",
            "code_postal": "2042"

        }
    },
    {
        "model": "contract.delegation",
        "pk": 123,
        "fields" : {
            "gouvernorat" : 23,
            "name": "bab souika",
            "code_postal": "1006"

        }
    },
    {
        "model": "contract.delegation",
        "pk": 124,
        "fields" : {
            "gouvernorat" : 23,
            "name": "Medina",
            "code_postal": "1019"

        }
    },
    {
        "model": "contract.delegation",
        "pk": 125,
        "fields" : {
            "gouvernorat" : 23,
            "name": "Sidi el bechir",
            "code_postal": "1089"

        }
    },
    {
        "model": "contract.delegation",
        "pk": 126,
        "fields" : {
            "gouvernorat" : 23,
            "name": "Sijoumi",
            "code_postal": "1007"

        }
    },
    {
        "model": "contract.delegation",
        "pk": 127,
        "fields" : {
            "gouvernorat" : 23,
            "name": "Ezzouhour",
            "code_postal": "2052"

        }
    },
    {
        "model": "contract.delegation",
        "pk": 128,
        "fields" : {
            "gouvernorat" : 23,
            "name": "El hrairia",
            "code_postal": "2087"

        }
    },
   
    {
        "model": "contract.delegation",
        "pk": 129,
        "fields" : {
            "gouvernorat" : 23,
            "name": "Jbel jeloud",
            "code_postal": "2023"

        }
    },
    {
        "model": "contract.delegation",
        "pk": 130,
        "fields" : {
            "gouvernorat" : 23,
            "name": "Sidi hassine",
            "code_postal": "1095"

        }
    },
    {
        "model": "contract.delegation",
        "pk": 131,
        "fields" : {
            "gouvernorat" : 23,
            "name": "El ouardia",
            "code_postal": "1009"

        }
    },
    {
        "model": "contract.delegation",
        "pk": 132,
        "fields" : {
            "gouvernorat" : 23,
            "name": "Kabaria",
            "code_postal": "2053"

        }
    },
    {
        "model": "contract.delegation",
        "pk": 133,
        "fields" : {
            "gouvernorat" : 13,
            "name": "DenDen",
            "code_postal": "2011"

        }
    },
    {
        "model": "contract.delegation",
        "pk": 134,
        "fields" : {
            "gouvernorat" : 13,
            "name": "Mornaguia",
            "code_postal": "1110"

        }
    },
    {
        "model": "contract.delegation",
        "pk": 135,
        "fields" : {
            "gouvernorat" : 13,
            "name": "Jedaida",
            "code_postal": "1124"

        }
    },
    {
        "model": "contract.delegation",
        "pk": 136,
        "fields" : {
            "gouvernorat" : 13,
            "name": "El batan",
            "code_postal": "1114"

        }
    },
    {
       "model": "contract.delegation",
        "pk": 137,
        "fields" : {
            "gouvernorat" : 2,
            "name": "Amdoun",
            "code_postal": "9030"

        } 
    },
    {
        "model": "contract.delegation",
         "pk": 138,
         "fields" : {
             "gouvernorat" : 2,
             "name": "Goubellat",
             "code_postal": "9080"
 
         } 
     },
     {
        "model": "contract.delegation",
         "pk": 139,
         "fields" : {
             "gouvernorat" : 2,
             "name": "Mejez El Bab",
             "code_postal": "9070"
 
         } 
     },
     {
        "model": "contract.delegation",
         "pk": 140,
         "fields" : {
             "gouvernorat" : 2,
             "name": "Nefza",
             "code_postal": "9010"
 
         } 
     },
     {
        "model": "contract.delegation",
         "pk": 141,
         "fields" : {
             "gouvernorat" : 2,
             "name": "Teboursouk",
             "code_postal": "9040"
 
         } 
     },
     {
        "model": "contract.delegation",
         "pk": 142,
         "fields" : {
             "gouvernorat" : 2,
             "name": "Testour",
             "code_postal": "9060"
 
         } 
     },
     {
        "model": "contract.delegation",
         "pk": 143,
         "fields" : {
             "gouvernorat" : 2,
             "name": "Thibar",
             "code_postal": "9022"
 
         } 
     },
     {
        "model": "contract.delegation",
         "pk": 144,
         "fields" : {
             "gouvernorat" : 3,
             "name": "Bou Mhel El Bassatine",
             "code_postal": "2097"
 
         } 
     },
     {
        "model": "contract.delegation",
         "pk": 145,
         "fields" : {
             "gouvernorat" : 3,
             "name": "El Mourouj",
             "code_postal": "2074"
 
         } 
     },
     {
        "model": "contract.delegation",
         "pk": 146,
         "fields" : {
             "gouvernorat" : 3,
             "name": "Fouchana",
             "code_postal": "2082"
 
         } 
     },
     {
        "model": "contract.delegation",
         "pk": 147,
         "fields" : {
             "gouvernorat" : 3,
             "name": "Hammam Chatt",
             "code_postal": "1164"
 
         } 
     },
     {
        "model": "contract.delegation",
         "pk": 148,
         "fields" : {
             "gouvernorat" : 3,
             "name": "Megrine",
             "code_postal": "2033"
 
         } 
     },
     {
        "model": "contract.delegation",
         "pk": 149,
         "fields" : {
             "gouvernorat" : 3,
             "name": "Mohamadia",
             "code_postal": "1145"
 
         } 
     },
     {
        "model": "contract.delegation",
         "pk": 150,
         "fields" : {
             "gouvernorat" : 3,
             "name": "Nouvelle Medina",
             "code_postal": "2063"
 
         } 
     },
     {
        "model": "contract.delegation",
         "pk": 151,
         "fields" : {
             "gouvernorat" : 4,
             "name": "El Alia",
             "code_postal": "7016"
 
         } 
     },
     {
        "model": "contract.delegation",
         "pk": 152,
         "fields" : {
             "gouvernorat" : 4,
             "name": "Ghezala",
             "code_postal": "7040"
 
         } 
     },
     {
        "model": "contract.delegation",
         "pk": 153,
         "fields" : {
             "gouvernorat" : 4,
             "name": "Jarzouna",
             "code_postal": "7021"
 
         } 
     },
     {
        "model": "contract.delegation",
         "pk": 154,
         "fields" : {
             "gouvernorat" : 4,
             "name": "Joumine",
             "code_postal": "7020"
 
         } 
     },
     {
        "model": "contract.delegation",
         "pk": 155,
         "fields" : {
             "gouvernorat" : 4,
             "name": "Menzel Jemil",
             "code_postal": "7080"
 
         } 
     },
     {
        "model": "contract.delegation",
         "pk": 156,
         "fields" : {
             "gouvernorat" : 4,
             "name": "Ras Jebel",
             "code_postal": "7070"
 
         } 
     },
     {
        "model": "contract.delegation",
         "pk": 157,
         "fields" : {
             "gouvernorat" : 4,
             "name": "Sejnane",
             "code_postal": "7010"
 
         } 
     },
     {
        "model": "contract.delegation",
         "pk": 158,
         "fields" : {
             "gouvernorat" : 4,
             "name": "Tinja",
             "code_postal": "7032"
 
         } 
     },
     {
        "model": "contract.delegation",
         "pk": 159,
         "fields" : {
             "gouvernorat" : 4,
             "name": "Utique",
             "code_postal": "7063"
 
         } 
     },
     {
        "model": "contract.delegation",
         "pk": 160,
         "fields" : {
             "gouvernorat" : 5,
             "name": "Gabès Ouest",
             "code_postal": "6031"
 
         } 
     }, 
     {
        "model": "contract.delegation",
         "pk": 161,
         "fields" : {
             "gouvernorat" : 5,
             "name": "Gabès sud",
             "code_postal": "6014"
 
         } 
     },
     {
        "model": "contract.delegation",
         "pk": 162,
         "fields" : {
             "gouvernorat" : 5,
             "name": "El Hamma",
             "code_postal": "6020"
 
         } 
     },
     {
        "model": "contract.delegation",
         "pk": 163,
         "fields" : {
             "gouvernorat" : 5,
             "name": "El Metouia",
             "code_postal": "6010"
 
         } 
     },
     {
        "model": "contract.delegation",
         "pk": 164,
         "fields" : {
             "gouvernorat" : 5,
             "name": "Nouvelle Matmata",
             "code_postal": "6044"
 
         } 
     },
     {
        "model": "contract.delegation",
         "pk": 165,
         "fields" : {
             "gouvernorat" : 6,
             "name": "Gafsa Sud",
             "code_postal": "2100"
 
         } 
     },
     {
        "model": "contract.delegation",
         "pk": 166,
         "fields" : {
             "gouvernorat" : 6,
             "name": "Belkhir",
             "code_postal": "2115"
 
         } 
     },
     {
        "model": "contract.delegation",
         "pk": 167,
         "fields" : {
             "gouvernorat" : 6,
             "name": "El Ksar",
             "code_postal": "2111"
 
         } 
     },
     {
        "model": "contract.delegation",
         "pk": 168,
         "fields" : {
             "gouvernorat" : 6,
             "name": "El Mdhilla",
             "code_postal": "2170"
 
         } 
     },
     {
        "model": "contract.delegation",
         "pk": 169,
         "fields" : {
             "gouvernorat" : 6,
             "name": "Metlaoui",
             "code_postal": "2130"
 
         } 
     },
     {
        "model": "contract.delegation",
         "pk": 170,
         "fields" : {
             "gouvernorat" : 6,
             "name": "Sned",
             "code_postal": "2190"
 
         } 
     },
     {
        "model": "contract.delegation",
         "pk": 171,
         "fields" : {
             "gouvernorat" : 7,
             "name": "Jendouba Nord",
             "code_postal": "8189"
 
         } 
     },
     {
        "model": "contract.delegation",
         "pk": 172,
         "fields" : {
             "gouvernorat" : 7,
             "name": "Balta Bou Aouene",
             "code_postal": "8116"
 
         } 
     },
     {
        "model": "contract.delegation",
         "pk": 173,
         "fields" : {
             "gouvernorat" : 7,
             "name": "Oued Mliz",
             "code_postal": "8115"
 
         } 
     },
     {
        "model": "contract.delegation",
         "pk": 174,
         "fields" : {
             "gouvernorat" : 7,
             "name": "Tabarka",
             "code_postal": "8110"
 
         } 
     },
     {
        "model": "contract.delegation",
         "pk": 175,
         "fields" : {
             "gouvernorat" : 8,
             "name": "Cherarda",
             "code_postal": "3116"
 
         } 
     },
     {
        "model": "contract.delegation",
         "pk": 176,
         "fields" : {
             "gouvernorat" : 8,
             "name": "El Ala",
             "code_postal": "3150"
 
         } 
     },
     {
        "model": "contract.delegation",
         "pk": 177,
         "fields" : {
             "gouvernorat" : 8,
             "name": "Hajeb El Ayoun",
             "code_postal": "3160"
 
         } 
     },
    
     {
        "model": "contract.delegation",
         "pk": 178,
         "fields" : {
             "gouvernorat" : 8,
             "name": "Kairouan Sud",
             "code_postal": "3100"
 
         } 
     },
     {
        "model": "contract.delegation",
         "pk": 179,
         "fields" : {
             "gouvernorat" : 8,
             "name": "Nasrallah",
             "code_postal": "3170"
 
         } 
     },
     {
        "model": "contract.delegation",
         "pk": 180,
         "fields" : {
             "gouvernorat" : 8,
             "name": "Oueslatia",
             "code_postal": "3120"
 
         } 
     },
     {
        "model": "contract.localite",
        "pk": 1,
        "fields": {
            "delegation": 115,
            "name": "Cité Jamil"
        }
    },
    {
       "model": "contract.localite",
        "pk": 2,
        "fields": {
            "delegation": 115,
            "name": "El Menzah 5 "
        } 
    },
    {
        "model": "contract.localite",
         "pk": 3,
         "fields": {
             "delegation": 115,
             "name": "El Menzah 6 "
         } 
     }




     





     
     
     

    
    


    

]
